{
  "type": "FeatureCollection",
  "features": [
    {
      "type": "Feature",
      "properties": {
        "norad_id": 30405,
        "name": "FENGYUN 1C DEB",
        "group": "fengyun-1c-debris",
        "lat": -42.11220925256028,
        "lon": 84.98022740481035,
        "alt_km": 834.9833391594739,
        "timestamp": "2025-12-08T23:34:04.245679+00:00",
        "meta_object_name": "FENGYUN 1C DEB",
        "meta_object_id": "1999-025ADU",
        "meta_epoch": "2025-12-08T12:04:34.241376",
        "meta_mean_motion": 14.28859376,
        "meta_eccentricity": 0.00515446,
        "meta_inclination": 98.7943,
        "meta_ra_of_asc_node": 76.4533,
        "meta_arg_of_pericenter": 165.8091,
        "meta_mean_anomaly": 209.6754,
        "meta_ephemeris_type": 0,
        "meta_classification_type": "U",
        "meta_norad_cat_id": 30405,
        "meta_element_set_no": 999,
        "meta_rev_at_epoch": 97335,
        "meta_bstar": 0.0026671352,
        "meta_mean_motion_dot": 6.786e-05,
        "meta_mean_motion_ddot": 0,
        "tle_line1": "1 30405U 99025ADU 25342.50317409  .00006786  00000+0  26671-2 0  9992",
        "tle_line2": "2 30405  98.7943  76.4533 0051544 165.8091 209.6754 14.28859376973354"
      },
      "geometry": {
        "type": "Point",
        "coordinates": [
          84.98022740481035,
          -42.11220925256028
        ]
      }
    },
    {
      "type": "Feature",
      "properties": {
        "norad_id": 30406,
        "name": "FENGYUN 1C DEB",
        "group": "fengyun-1c-debris",
        "lat": 36.345968177205364,
        "lon": 60.50014031591364,
        "alt_km": 1177.4821462412156,
        "timestamp": "2025-12-08T23:34:04.245689+00:00",
        "meta_object_name": "FENGYUN 1C DEB",
        "meta_object_id": "1999-025ADV",
        "meta_epoch": "2025-12-08T16:04:10.257024",
        "meta_mean_motion": 13.59188825,
        "meta_eccentricity": 0.02830718,
        "meta_inclination": 98.6202,
        "meta_ra_of_asc_node": 233.8166,
        "meta_arg_of_pericenter": 10.3523,
        "meta_mean_anomaly": 42.4151,
        "meta_ephemeris_type": 0,
        "meta_classification_type": "U",
        "meta_norad_cat_id": 30406,
        "meta_element_set_no": 999,
        "meta_rev_at_epoch": 93111,
        "meta_bstar": 0.0036793567,
        "meta_mean_motion_dot": 3.489e-05,
        "meta_mean_motion_ddot": 0,
        "tle_line1": "1 30406U 99025ADV 25342.66956316  .00003489  00000+0  36794-2 0  9990",
        "tle_line2": "2 30406  98.6202 233.8166 0283071  10.3523  42.4151 13.59188825931118"
      },
      "geometry": {
        "type": "Point",
        "coordinates": [
          60.50014031591364,
          36.345968177205364
        ]
      }
    },
    {
      "type": "Feature",
      "properties": {
        "norad_id": 30409,
        "name": "FENGYUN 1C DEB",
        "group": "fengyun-1c-debris",
        "lat": 0.37306712780603685,
        "lon": -29.43579347461721,
        "alt_km": 766.1506126575177,
        "timestamp": "2025-12-08T23:34:04.245700+00:00",
        "meta_object_name": "FENGYUN 1C DEB",
        "meta_object_id": "1999-025ADY",
        "meta_epoch": "2025-12-08T10:35:58.749216",
        "meta_mean_motion": 14.03711535,
        "meta_eccentricity": 0.01681056,
        "meta_inclination": 98.4729,
        "meta_ra_of_asc_node": 330.1159,
        "meta_arg_of_pericenter": 17.6902,
        "meta_mean_anomaly": 134.302,
        "meta_ephemeris_type": 0,
        "meta_classification_type": "U",
        "meta_norad_cat_id": 30409,
        "meta_element_set_no": 999,
        "meta_rev_at_epoch": 96369,
        "meta_bstar": 0.0015214973,
        "meta_mean_motion_dot": 2.673e-05,
        "meta_mean_motion_ddot": 0,
        "tle_line1": "1 30409U 99025ADY 25342.44165219  .00002673  00000+0  15215-2 0  9992",
        "tle_line2": "2 30409  98.4729 330.1159 0168105  17.6902 134.3020 14.03711535963691"
      },
      "geometry": {
        "type": "Point",
        "coordinates": [
          -29.43579347461721,
          0.37306712780603685
        ]
      }
    },
    {
      "type": "Feature",
      "properties": {
        "norad_id": 30411,
        "name": "FENGYUN 1C DEB",
        "group": "fengyun-1c-debris",
        "lat": 4.706983199308938,
        "lon": 74.49259945081292,
        "alt_km": 821.8253143605416,
        "timestamp": "2025-12-08T23:34:04.245710+00:00",
        "meta_object_name": "FENGYUN 1C DEB",
        "meta_object_id": "1999-025AEA",
        "meta_epoch": "2025-12-08T05:41:24.933696",
        "meta_mean_motion": 14.07611903,
        "meta_eccentricity": 0.01221644,
        "meta_inclination": 98.5822,
        "meta_ra_of_asc_node": 253.0722,
        "meta_arg_of_pericenter": 119.4585,
        "meta_mean_anomaly": 241.8839,
        "meta_ephemeris_type": 0,
        "meta_classification_type": "U",
        "meta_norad_cat_id": 30411,
        "meta_element_set_no": 999,
        "meta_rev_at_epoch": 95920,
        "meta_bstar": 0.0021489058,
        "meta_mean_motion_dot": 3.845e-05,
        "meta_mean_motion_ddot": 0,
        "tle_line1": "1 30411U 99025AEA 25342.23709414  .00003845  00000+0  21489-2 0  9995",
        "tle_line2": "2 30411  98.5822 253.0722 0122164 119.4585 241.8839 14.07611903959207"
      },
      "geometry": {
        "type": "Point",
        "coordinates": [
          74.49259945081292,
          4.706983199308938
        ]
      }
    },
    {
      "type": "Feature",
      "properties": {
        "norad_id": 30413,
        "name": "FENGYUN 1C DEB",
        "group": "fengyun-1c-debris",
        "lat": -48.54427554468732,
        "lon": 20.41224078210546,
        "alt_km": 757.4688121145746,
        "timestamp": "2025-12-08T23:34:04.245721+00:00",
        "meta_object_name": "FENGYUN 1C DEB",
        "meta_object_id": "1999-025AEC",
        "meta_epoch": "2025-12-08T14:22:33.887712",
        "meta_mean_motion": 14.32464434,
        "meta_eccentricity": 0.00457261,
        "meta_inclination": 102.0616,
        "meta_ra_of_asc_node": 213.8892,
        "meta_arg_of_pericenter": 227.7748,
        "meta_mean_anomaly": 188.1056,
        "meta_ephemeris_type": 0,
        "meta_classification_type": "U",
        "meta_norad_cat_id": 30413,
        "meta_element_set_no": 999,
        "meta_rev_at_epoch": 97080,
        "meta_bstar": 0.0032516611,
        "meta_mean_motion_dot": 8.849e-05,
        "meta_mean_motion_ddot": 0,
        "tle_line1": "1 30413U 99025AEC 25342.59900333  .00008849  00000+0  32517-2 0  9992",
        "tle_line2": "2 30413 102.0616 213.8892 0045726 227.7748 188.1056 14.32464434970801"
      },
      "geometry": {
        "type": "Point",
        "coordinates": [
          20.41224078210546,
          -48.54427554468732
        ]
      }
    },
    {
      "type": "Feature",
      "properties": {
        "norad_id": 30414,
        "name": "FENGYUN 1C DEB",
        "group": "fengyun-1c-debris",
        "lat": -60.81708560640931,
        "lon": 156.68540495582002,
        "alt_km": 791.1573872444415,
        "timestamp": "2025-12-08T23:34:04.245731+00:00",
        "meta_object_name": "FENGYUN 1C DEB",
        "meta_object_id": "1999-025AED",
        "meta_epoch": "2025-12-08T10:27:47.046816",
        "meta_mean_motion": 14.34057824,
        "meta_eccentricity": 0.00585778,
        "meta_inclination": 99.081,
        "meta_ra_of_asc_node": 139.4713,
        "meta_arg_of_pericenter": 201.1051,
        "meta_mean_anomaly": 158.7714,
        "meta_ephemeris_type": 0,
        "meta_classification_type": "U",
        "meta_norad_cat_id": 30414,
        "meta_element_set_no": 999,
        "meta_rev_at_epoch": 97025,
        "meta_bstar": 0.0035288318,
        "meta_mean_motion_dot": 0.00010021,
        "meta_mean_motion_ddot": 0,
        "tle_line1": "1 30414U 99025AED 25342.43596119  .00010021  00000+0  35288-2 0  9992",
        "tle_line2": "2 30414  99.0810 139.4713 0058577 201.1051 158.7714 14.34057824970255"
      },
      "geometry": {
        "type": "Point",
        "coordinates": [
          156.68540495582002,
          -60.81708560640931
        ]
      }
    },
    {
      "type": "Feature",
      "properties": {
        "norad_id": 30415,
        "name": "FENGYUN 1C DEB",
        "group": "fengyun-1c-debris",
        "lat": 1.2605014694388814,
        "lon": -136.56098663342146,
        "alt_km": 1033.5275525630896,
        "timestamp": "2025-12-08T23:34:04.245741+00:00",
        "meta_object_name": "FENGYUN 1C DEB",
        "meta_object_id": "1999-025AEE",
        "meta_epoch": "2025-12-08T10:29:11.156352",
        "meta_mean_motion": 13.68919179,
        "meta_eccentricity": 0.0238111,
        "meta_inclination": 99.6456,
        "meta_ra_of_asc_node": 42.6791,
        "meta_arg_of_pericenter": 280.3309,
        "meta_mean_anomaly": 96.2585,
        "meta_ephemeris_type": 0,
        "meta_classification_type": "U",
        "meta_norad_cat_id": 30415,
        "meta_element_set_no": 999,
        "meta_rev_at_epoch": 93819,
        "meta_bstar": 0.0019267765,
        "meta_mean_motion_dot": 1.98e-05,
        "meta_mean_motion_ddot": 0,
        "tle_line1": "1 30415U 99025AEE 25342.43693468  .00001980  00000+0  19268-2 0  9992",
        "tle_line2": "2 30415  99.6456  42.6791 0238111 280.3309  96.2585 13.68919179938193"
      },
      "geometry": {
        "type": "Point",
        "coordinates": [
          -136.56098663342146,
          1.2605014694388814
        ]
      }
    }
  ]
}